H1 CPF  1  DLR 2021 05 08 10  6282 technosat            
H2  1704205 6203    42829 2021 05 08 00 00 00 2021 05 15 00 00 00    60 1 1  0 0 0
H9
10 0 59346      0.000000  0        772598.310      -2076008.009      -6609630.216
10 0 59346     60.000000  0        452584.192      -1771036.100      -6726875.609
10 0 59346    120.000000  0        133385.397      -1455838.517      -6815697.768
10 0 59346    180.000000  0       -183575.411      -1131751.607      -6875725.270
10 0 59346    240.000000  0       -496897.161       -800160.780      -6906707.248
10 0 59346    300.000000  0       -805206.503       -462494.655      -6908514.368
10 0 59346    360.000000  0      -1107163.795       -120218.954      -6881139.315
10 0 59346    420.000000  0      -1401468.858        225169.772      -6824696.766
10 0 59346    480.000000  0      -1686866.520        572150.583      -6739422.959
10 0 59346    540.000000  0      -1962151.905        919184.783      -6625674.796
10 0 59346    600.000000  0      -2226175.457       1264722.674      -6483928.447
10 0 59346    660.000000  0      -2477847.716       1607210.359      -6314777.530
10 0 59346    720.000000  0      -2716143.861       1945096.648      -6118930.872
10 0 59346    780.000000  0      -2940107.929       2276840.095      -5897209.784
10 0 59346    840.000000  0      -3148856.709       2600916.034      -5650544.882
10 0 59346    900.000000  0      -3341583.362       2915823.636      -5379972.462
10 0 59346    960.000000  0      -3517560.695       3220092.931      -5086630.365
10 0 59346   1020.000000  0      -3676144.052       3512291.771      -4771753.383
10 0 59346   1080.000000  0      -3816773.800       3791032.679      -4436668.224
10 0 59346   1140.000000  0      -3938977.395       4054979.563      -4082788.050
10 0 59346   1200.000000  0      -4042370.993       4302854.231      -3711606.636
10 0 59346   1260.000000  0      -4126660.663       4533442.737      -3324692.210
10 0 59346   1320.000000  0      -4191643.244       4745601.495      -2923680.906
10 0 59346   1380.000000  0      -4237206.747       4938263.075      -2510269.820
10 0 59346   1440.000000  0      -4263330.294       5110441.692      -2086209.837
10 0 59346   1500.000000  0      -4270083.657       5261238.405      -1653298.159
10 0 59346   1560.000000  0      -4257626.343       5389845.945      -1213370.550
10 0 59346   1620.000000  0      -4226206.197       5495553.144       -768293.307
10 0 59346   1680.000000  0      -4176157.480       5577748.766       -319955.051
10 0 59346   1740.000000  0      -4107898.653       5635924.841        129741.395
10 0 59346   1800.000000  0      -4021929.723       5669679.726        578887.332
10 0 59346   1860.000000  0      -3918829.131       5678720.537       1025576.599
10 0 59346   1920.000000  0      -3799250.334       5662865.026       1467913.945
10 0 59346   1980.000000  0      -3663917.974       5622042.946       1904023.376
10 0 59346   2040.000000  0      -3513623.636       5556296.786       2332056.371
10 0 59346   2100.000000  0      -3349221.329       5465781.947       2750199.865
10 0 59346   2160.000000  0      -3171622.711       5350766.388       3156684.024
10 0 59346   2220.000000  0      -2981792.122       5211629.770       3549789.770
10 0 59346   2280.000000  0      -2780741.388       5048862.113       3927856.108
10 0 59346   2340.000000  0      -2569524.412       4863061.854       4289287.149
10 0 59346   2400.000000  0      -2349231.662       4654933.431       4632558.768
10 0 59346   2460.000000  0      -2120984.566       4425284.387       4956224.937
10 0 59346   2520.000000  0      -1885929.790       4175021.989       5258923.720
10 0 59346   2580.000000  0      -1645233.437       3905149.382       5539382.818
10 0 59346   2640.000000  0      -1400075.271       3616761.329       5796424.655
10 0 59346   2700.000000  0      -1151642.975       3311039.573       6028971.081
10 0 59346   2760.000000  0       -901126.416       2989247.793       6236047.642
10 0 59346   2820.000000  0       -649712.026       2652726.217       6416787.327
10 0 59346   2880.000000  0       -398577.289       2302886.029       6570433.923
10 0 59346   2940.000000  0       -148885.302       1941203.425       6696345.012
10 0 59346   3000.000000  0         98220.559       1569213.313       6793994.466
10 0 59346   3060.000000  0        341621.795       1188502.789       6862974.392
10 0 59346   3120.000000  0        580229.762        800704.446       6902996.648
10 0 59346   3180.000000  0        812990.437        407489.494       6913893.933
10 0 59346   3240.000000  0       1038888.997         10560.678       6895620.469
10 0 59346   3300.000000  0       1256954.168       -388354.997       6848252.229
10 0 59346   3360.000000  0       1466262.360       -787513.725       6771986.662
10 0 59346   3420.000000  0       1665941.541      -1185162.397       6667141.881
10 0 59346   3480.000000  0       1855174.834      -1579546.149       6534155.516
10 0 59346   3540.000000  0       2033203.867      -1968916.077       6373583.102
10 0 59346   3600.000000  0       2199331.831      -2351536.955       6186095.935
10 0 59346   3660.000000  0       2352926.249      -2725694.929       5972478.506
10 0 59346   3720.000000  0       2493421.434      -3089705.229       5733625.449
10 0 59346   3780.000000  0       2620320.583      -3441919.781       5470538.006
10 0 59346   3840.000000  0       2733197.559      -3780734.706       5184320.096
10 0 59346   3900.000000  0       2831698.356      -4104597.728       4876173.980
10 0 59346   3960.000000  0       2915542.240      -4412015.469       4547395.469
10 0 59346   4020.000000  0       2984522.537      -4701560.541       4199368.621
10 0 59346   4080.000000  0       3038507.006      -4971878.323       3833560.044
10 0 59346   4140.000000  0       3077437.882      -5221693.518       3451512.911
10 0 59346   4200.000000  0       3101331.567      -5449816.449       3054840.532
10 0 59346   4260.000000  0       3110277.923      -5655148.975       2645219.544
10 0 59346   4320.000000  0       3104439.165      -5836689.975       2224382.796
10 0 59346   4380.000000  0       3084048.393      -5993540.446       1794111.965
10 0 59346   4440.000000  0       3049407.789      -6124908.076       1356229.944
10 0 59346   4500.000000  0       3000886.546      -6230111.428        912593.034
10 0 59346   4560.000000  0       2938918.398      -6308583.581        465082.921
10 0 59346   4620.000000  0       2863998.844      -6359875.348         15598.524
10 0 59346   4680.000000  0       2776682.012      -6383657.883       -433952.413
10 0 59346   4740.000000  0       2677577.235      -6379724.560       -881661.735
10 0 59346   4800.000000  0       2567345.343      -6347992.276      -1325629.210
10 0 59346   4860.000000  0       2446694.718      -6288502.225      -1763970.780
10 0 59346   4920.000000  0       2316377.159      -6201420.094      -2194826.763
10 0 59346   4980.000000  0       2177183.610      -6087035.696      -2616370.048
10 0 59346   5040.000000  0       2029939.456      -5945761.861      -3026814.155
10 0 59346   5100.000000  0       1875499.784      -5778132.633      -3424420.834
10 0 59346   5160.000000  0       1714744.683      -5584801.031      -3807507.476
10 0 59346   5220.000000  0       1548574.424      -5366536.223      -4174454.299
10 0 59346   5280.000000  0       1377904.576      -5124220.159      -4523711.163
10 0 59346   5340.000000  0       1203661.095      -4858843.724      -4853804.036
10 0 59346   5400.000000  0       1026775.436      -4571502.420      -5163341.118
10 0 59346   5460.000000  0        848179.692      -4263391.571      -5451018.588
10 0 59346   5520.000000  0        668801.782      -3935801.064      -5715625.929
10 0 59346   5580.000000  0        489560.732      -3590109.706      -5956050.806
10 0 59346   5640.000000  0        311362.066      -3227779.209      -6171283.499
10 0 59346   5700.000000  0        135093.331      -2850347.849      -6360420.903
10 0 59346   5760.000000  0        -38380.230      -2459423.802      -6522670.080
10 0 59346   5820.000000  0       -208219.839      -2056678.195      -6657351.338
10 0 59346   5880.000000  0       -373617.141      -1643837.939      -6763900.852
10 0 59346   5940.000000  0       -533797.957      -1222678.320      -6841872.873
10 0 59346   6000.000000  0       -688025.815       -795015.352      -6890941.439
10 0 59346   6060.000000  0       -835605.276       -362697.977      -6910901.597
10 0 59346   6120.000000  0       -975885.028         72399.841      -6901670.110
10 0 59346   6180.000000  0      -1108260.728        508387.077      -6863285.763
10 0 59346   6240.000000  0      -1232177.577        943363.773      -6795909.272
10 0 59346   6300.000000  0      -1347132.625       1375429.271      -6699822.621
10 0 59346   6360.000000  0      -1452676.778       1802690.365      -6575427.924
10 0 59346   6420.000000  0      -1548416.543       2223269.464      -6423245.971
10 0 59346   6480.000000  0      -1634015.511       2635312.846      -6243914.315
10 0 59346   6540.000000  0      -1709195.569       3036998.891      -6038184.785
10 0 59346   6600.000000  0      -1773737.751       3426546.129      -5806920.498
10 0 59346   6660.000000  0      -1827482.793       3802221.185      -5551092.533
10 0 59346   6720.000000  0      -1870331.433       4162346.635      -5271776.130
10 0 59346   6780.000000  0      -1902244.391       4505308.694      -4970146.388
10 0 59346   6840.000000  0      -1923242.041       4829564.656      -4647473.505
10 0 59346   6900.000000  0      -1933403.754       5133650.059      -4305117.571
10 0 59346   6960.000000  0      -1932866.940       5416185.520      -3944522.962
10 0 59346   7020.000000  0      -1921825.768       5675883.232      -3567212.354
10 0 59346   7080.000000  0      -1900529.578       5911553.084      -3174780.398
10 0 59346   7140.000000  0      -1869281.023       6122108.412      -2768887.050
99
